COSMO-SKYMED 1          
1 31598U 07023A   26165.79569961  .00002426  00000+0  21558-3 0  9997
2 31598  97.8840 357.6316 0001125  97.8433 262.2916 14.97089058 29435
COSMOS 2428             
1 31792U 07029A   26165.80742091 -.00000126  00000+0 -41673-4 0  9996
2 31792  70.9370 359.4745 0007149 139.5409 220.6245 14.12928516977811
SL-16 R/B               
1 31793U 07029B   26165.85565534  .00000199  00000+0  12770-3 0  9990
2 31793  70.9767 328.1295 0002281 261.0988 203.7462 14.14854176979110
KORONAS-FOTON           
1 33504U 09003A   26165.74793156  .00009616  00000+0  19805-3 0  9996
2 33504  82.4280 174.8038 0011439 155.5062 204.6733 15.45681612960722
CZ-2C R/B               
1 37731U 11030B   26165.87972286  .00001178  00000+0  15363-3 0  9992
2 37731  97.8654 121.3074 0053224  35.3471  26.3142 14.81466537804486
H-2A R/B                
1 38341U 12025E   26165.68169780  .00003270  00000+0  29437-3 0  9993
2 38341  98.4825 140.6208 0043800 357.5782   2.5218 14.95706925762719
SHIJIAN-16 (SJ-16)      
1 39358U 13057A   26165.89344056  .00000809  00000+0  81288-4 0  9990
2 39358  74.9728   1.0284 0016850 236.1617 123.7968 14.92601796686009
SL-4 R/B                
1 39679U 14021B   26165.86028212  .00008849  00000+0  18540-3 0  9990
2 39679  51.6041 222.1715 0091367  97.4844 263.6533 15.41913470671259
YAOGAN-29               
1 41038U 15069A   26165.88389697 -.00000044  00000+0  12856-5 0  9990
2 41038  98.0029 194.5128 0002695  58.2676 301.8799 14.83081718570282
ASTRO-H (HITOMI)        
1 41337U 16012A   26165.12670856  .00002474  00000+0  14075-3 0  9999
2 41337  30.9991  93.9524 0009751 223.3647 136.6224 15.10498939566822
HXMT (HUIYAN)           
1 42758U 17034A   26165.56897872  .00003135  00000+0  15926-3 0  9990
2 42758  43.0126 197.6204 0030331 130.0289 230.3228 15.18464729497261
SAOCOM 1A               
1 43641U 18076A   26165.84066644  .00000290  00000+0  42947-4 0  9998
2 43641  97.8880 352.6237 0001605  79.2410 280.8984 14.82147521415759
H-2A R/B                
1 43682U 18084L   26165.66733635  .00018523  00000+0  38986-3 0  9998
2 43682  98.8586  44.0072 0023726  49.0095 311.3196 15.45070881420732
SAOCOM 1B               
1 46265U 20059A   26165.87186215  .00000297  00000+0  43835-4 0  9991
2 46265  97.8885 351.7488 0001293  91.3837 268.7524 14.82208220313147
CSS (TIANHE)            
1 48274U 21035A   26165.80144780  .00021074  00000+0  24953-3 0  9997
2 48274  41.4695 336.5204 0007660  57.6860 302.4720 15.60716016292790
COSMOS 2550             
1 48865U 21056A   26165.87223142  .00004424  00000+0  14021-3 0  9998
2 48865  67.1429 106.9082 0008407 268.2758  91.7433 15.33831879278366
CZ-2C R/B               
1 52794U 22058K   26165.74687050  .00033243  00000+0  37205-3 0  9995
2 52794  50.1832 176.2150 0032578 257.8533 101.8791 15.61696583225262
CZ-2C R/B               
1 54039U 22132E   26165.54150182  .00052534  00000+0  41201-3 0  9996
2 54039  97.2891 172.4483 0016401  92.3352 267.9789 15.71227680205536
GSLV R/B                
1 54149U 22138AN  26165.84540221  .00002690  00000+0  22880-3 0  9994
2 54149  87.3800 133.7704 0022536 151.5168 208.7300 14.97246790198468
XRISM                   
1 57800U 23137A   26165.88082027  .00004687  00000+0  25737-3 0  9992
2 57800  31.0031  14.5411 0007969 300.9216  59.0639 15.12448059152513
ACS3                    
1 59588U 24077B   26165.62138823  .00007840  00000+0  58459-2 0  9999
2 59588  97.1678  84.9820 0068989  65.3065 295.5264 13.93844822107680
CZ-8A R/B               
1 66004U 25231K   26164.90771125 -.00000054  00000+0  38923-4 0  9998
2 66004  50.0054  53.2684 0116473 212.4566 146.9149 14.30154115 34475
SZ-21 MODULE            
1 66515U 25246C   26164.73115900  .00045764  00000+0  28446-3 0  9999
2 66515  41.4731 328.8460 0006751 328.3391  31.7047 15.76117488 33190
