OBJECT_NAME,OBJECT_ID,EPOCH,MEAN_MOTION,ECCENTRICITY,INCLINATION,RA_OF_ASC_NODE,ARG_OF_PERICENTER,MEAN_ANOMALY,EPHEMERIS_TYPE,CLASSIFICATION_TYPE,NORAD_CAT_ID,ELEMENT_SET_NO,REV_AT_EPOCH,BSTAR,MEAN_MOTION_DOT,MEAN_MOTION_DDOT
COSMO-SKYMED 1,2007-023A,2026-06-14T19:05:48.446304,14.97089058,.0001125,97.8840,357.6316,97.8433,262.2916,0,U,31598,999,2943,.21558E-3,.2426E-4,0
COSMOS 2428,2007-029A,2026-06-14T19:22:41.166624,14.12928516,.0007149,70.9370,359.4745,139.5409,220.6245,0,U,31792,999,97781,-.41673E-4,-.126E-5,0
SL-16 R/B,2007-029B,2026-06-14T20:32:08.621376,14.14854176,.0002281,70.9767,328.1295,261.0988,203.7462,0,U,31793,999,97911,.1277E-3,.199E-5,0
KORONAS-FOTON,2009-003A,2026-06-14T17:57:01.286784,15.45681612,.0011439,82.4280,174.8038,155.5062,204.6733,0,U,33504,999,96072,.19805E-3,.9616E-4,0
CZ-2C R/B,2011-030B,2026-06-14T21:06:48.055104,14.81466537,.0053224,97.8654,121.3074,35.3471,26.3142,0,U,37731,999,80448,.15363E-3,.1178E-4,0
H-2A R/B,2012-025E,2026-06-14T16:21:38.689920,14.95706925,.00438,98.4825,140.6208,357.5782,2.5218,0,U,38341,999,76271,.29437E-3,.327E-4,0
SHIJIAN-16 (SJ-16),2013-057A,2026-06-14T21:26:33.264384,14.92601796,.001685,74.9728,1.0284,236.1617,123.7968,0,U,39358,999,68600,.81288E-4,.809E-5,0
SL-4 R/B,2014-021B,2026-06-14T20:38:48.375168,15.41913470,.0091367,51.6041,222.1715,97.4844,263.6533,0,U,39679,999,67125,.1854E-3,.8849E-4,0
YAOGAN-29,2015-069A,2026-06-14T21:12:48.698208,14.83081718,.0002695,98.0029,194.5128,58.2676,301.8799,0,U,41038,999,57028,.12856E-5,-.44E-6,0
ASTRO-H (HITOMI),2016-012A,2026-06-14T03:02:27.619584,15.10498939,.0009751,30.9991,93.9524,223.3647,136.6224,0,U,41337,999,56682,.14075146E-3,.2474E-4,0
HXMT (HUIYAN),2017-034A,2026-06-14T13:39:19.761408,15.18464729,.0030331,43.0126,197.6204,130.0289,230.3228,0,U,42758,999,49726,.15926E-3,.3135E-4,0
SAOCOM 1A,2018-076A,2026-06-14T20:10:33.580416,14.82147521,.0001605,97.8880,352.6237,79.2410,280.8984,0,U,43641,999,41575,.42947E-4,.29E-5,0
H-2A R/B,2018-084L,2026-06-14T16:00:57.860640,15.45070881,.0023726,98.8586,44.0072,49.0095,311.3196,0,U,43682,999,42073,.38986E-3,.18523E-3,0
SAOCOM 1B,2020-059A,2026-06-14T20:55:28.889760,14.82208220,.0001293,97.8885,351.7488,91.3837,268.7524,0,U,46265,999,31314,.43835E-4,.297E-5,0
CSS (TIANHE),2021-035A,2026-06-14T19:14:05.089920,15.60716016,.000766,41.4695,336.5204,57.6860,302.4720,0,U,48274,999,29279,.24953E-3,.21074E-3,0
COSMOS 2550,2021-056A,2026-06-14T20:56:00.794688,15.33831879,.0008407,67.1429,106.9082,268.2758,91.7433,0,U,48865,999,27836,.14021E-3,.4424E-4,0
CZ-2C R/B,2022-058K,2026-06-14T17:55:29.611200,15.61696583,.0032578,50.1832,176.2150,257.8533,101.8791,0,U,52794,999,22526,.37205E-3,.33243E-3,0
CZ-2C R/B,2022-132E,2026-06-14T12:59:45.757248,15.71227680,.0016401,97.2891,172.4483,92.3352,267.9789,0,U,54039,999,20553,.41201E-3,.52534E-3,0
GSLV R/B,2022-138AN,2026-06-14T20:17:22.750944,14.97246790,.0022536,87.3800,133.7704,151.5168,208.7300,0,U,54149,999,19846,.2288E-3,.269E-4,0
XRISM,2023-137A,2026-06-14T21:08:22.871328,15.12448059,.0007969,31.0031,14.5411,300.9216,59.0639,0,U,57800,999,15251,.25737E-3,.4687E-4,0
ACS3,2024-077B,2026-06-14T14:54:47.943072,13.93844822,.0068989,97.1678,84.9820,65.3065,295.5264,0,U,59588,999,10768,.58459E-2,.784E-4,0
CZ-8A R/B,2025-231K,2026-06-13T21:47:06.252000,14.30154115,.0116473,50.0054,53.2684,212.4566,146.9149,0,U,66004,999,3447,.38923E-4,-.54E-6,0
SZ-21 MODULE,2025-246C,2026-06-13T17:32:52.137600,15.76117488,.00067511,41.4731,328.8460,328.3391,31.7047,0,U,66515,999,3319,.28446481E-3,.45764E-3,0
